{"type": "FeatureCollection", "features": [ {"type": "Feature", "properties": {"norad_id": 35961, "name": "COSMOS 2251 DEB", "group": "cosmos-2251-debris", "lat": 42.95034365119126, "lon": -140.18545910080348, "alt_km": 874.4091399806839, "timestamp": "2025-12-12T16:50:33.543432+00:00", "meta": {"OBJECT_NAME": "COSMOS 2251 DEB", "OBJECT_ID": "1993-036AVB", "EPOCH": "2025-12-11T08:09:55.723392", "MEAN_MOTION": 14.05375805, "ECCENTRICITY": 0.01919806, "INCLINATION": 73.9248, "RA_OF_ASC_NODE": 206.6381, "ARG_OF_PERICENTER": 140.2943, "MEAN_ANOMALY": 221.2432, "EPHEMERIS_TYPE": 0, "CLASSIFICATION_TYPE": "U", "NORAD_CAT_ID": 35961, "ELEMENT_SET_NO": 999, "REV_AT_EPOCH": 62662, "BSTAR": 0.0012047143, "MEAN_MOTION_DOT": 2.281e-05, "MEAN_MOTION_DDOT": 0}, "tle": {"line1": "1 35961U 93036AVB 25345.34022828  .00002281  00000+0  12047-2 0  9991", "line2": "2 35961  73.9248 206.6381 0191980 140.2943 221.2432 14.05375805626622"}}, "geometry": {"type": "Point", "coordinates": [-140.18545910080348, 42.95034365119126]}}, {"type": "Feature", "properties": {"norad_id": 35979, "name": "COSMOS 2251 DEB", "group": "cosmos-2251-debris", "lat": -67.64944335220234, "lon": -165.75704599837363, "alt_km": 649.1535028017215, "timestamp": "2025-12-12T16:50:33.543443+00:00", "meta": {"OBJECT_NAME": "COSMOS 2251 DEB", "OBJECT_ID": "1993-036AVV", "EPOCH": "2025-12-09T11:50:03.223968", "MEAN_MOTION": 14.74576302, "ECCENTRICITY": 0.00588204, "INCLINATION": 74.0104, "RA_OF_ASC_NODE": 244.7352, "ARG_OF_PERICENTER": 17.6471, "MEAN_ANOMALY": 162.3797, "EPHEMERIS_TYPE": 0, "CLASSIFICATION_TYPE": "U", "NORAD_CAT_ID": 35979, "ELEMENT_SET_NO": 999, "REV_AT_EPOCH": 88585, "BSTAR": 0.0014101379, "MEAN_MOTION_DOT": 9.639e-05, "MEAN_MOTION_DDOT": 0}, "tle": {"line1": "1 35979U 93036AVV 25343.49309287  .00009639  00000+0  14101-2 0  9998", "line2": "2 35979  74.0104 244.7352 0058820  17.6471 162.3797 14.74576302885855"}}, "geometry": {"type": "Point", "coordinates": [-165.75704599837363, -67.64944335220234]}}, {"type": "Feature", "properties": {"norad_id": 35980, "name": "COSMOS 2251 DEB", "group": "cosmos-2251-debris", "lat": 13.728605955842848, "lon": -61.28212637709565, "alt_km": 696.5928357694856, "timestamp": "2025-12-12T16:50:33.543453+00:00", "meta": {"OBJECT_NAME": "COSMOS 2251 DEB", "OBJECT_ID": "1993-036AVW", "EPOCH": "2025-12-02T19:08:08.015136", "MEAN_MOTION": 14.59062146, "ECCENTRICITY": 0.00537712, "INCLINATION": 73.91, "RA_OF_ASC_NODE": 141.7735, "ARG_OF_PERICENTER": 277.5645, "MEAN_ANOMALY": 81.9413, "EPHEMERIS_TYPE": 0, "CLASSIFICATION_TYPE": "U", "NORAD_CAT_ID": 35980, "ELEMENT_SET_NO": 999, "REV_AT_EPOCH": 61341, "BSTAR": 0.002036555, "MEAN_MOTION_DOT": 9.752e-05, "MEAN_MOTION_DDOT": 0}, "tle": {"line1": "1 35980U 93036AVW 25336.79731499  .00009752  00000+0  20366-2 0  9995", "line2": "2 35980  73.9100 141.7735 0053771 277.5645  81.9413 14.59062146613413"}}, "geometry": {"type": "Point", "coordinates": [-61.28212637709565, 13.728605955842848]}}, {"type": "Feature", "properties": {"norad_id": 35982, "name": "COSMOS 2251 DEB", "group": "cosmos-2251-debris", "lat": 74.02026129062146, "lon": 80.49734734163573, "alt_km": 640.9006792241025, "timestamp": "2025-12-12T16:50:33.543463+00:00", "meta": {"OBJECT_NAME": "COSMOS 2251 DEB", "OBJECT_ID": "1993-036AVY", "EPOCH": "2025-12-12T06:35:04.727328", "MEAN_MOTION": 14.62746296, "ECCENTRICITY": 0.00641111, "INCLINATION": 74.0585, "RA_OF_ASC_NODE": 347.8199, "ARG_OF_PERICENTER": 54.2821, "MEAN_ANOMALY": 306.4287, "EPHEMERIS_TYPE": 0, "CLASSIFICATION_TYPE": "U", "NORAD_CAT_ID": 35982, "ELEMENT_SET_NO": 999, "REV_AT_EPOCH": 86159, "BSTAR": 0.00089096776, "MEAN_MOTION_DOT": 4.65e-05, "MEAN_MOTION_DDOT": 0}, "tle": {"line1": "1 35982U 93036AVY 25346.27436027  .00004650  00000+0  89097-3 0  9999", "line2": "2 35982  74.0585 347.8199 0064111  54.2821 306.4287 14.62746296861590"}}, "geometry": {"type": "Point", "coordinates": [80.49734734163573, 74.02026129062146]}}, {"type": "Feature", "properties": {"norad_id": 35987, "name": "COSMOS 2251 DEB", "group": "cosmos-2251-debris", "lat": 73.54628132433801, "lon": 43.01218177450666, "alt_km": 708.2606722010069, "timestamp": "2025-12-12T16:50:33.543473+00:00", "meta": {"OBJECT_NAME": "COSMOS 2251 DEB", "OBJECT_ID": "1993-036AWD", "EPOCH": "2025-12-11T05:30:31.150080", "MEAN_MOTION": 14.43110132, "ECCENTRICITY": 0.00459363, "INCLINATION": 74.0001, "RA_OF_ASC_NODE": 329.4532, "ARG_OF_PERICENTER": 95.6067, "MEAN_ANOMALY": 265.033, "EPHEMERIS_TYPE": 0, "CLASSIFICATION_TYPE": "U", "NORAD_CAT_ID": 35987, "ELEMENT_SET_NO": 999, "REV_AT_EPOCH": 61043, "BSTAR": 0.0014697546, "MEAN_MOTION_DOT": 4.973e-05, "MEAN_MOTION_DDOT": 0}, "tle": {"line1": "1 35987U 93036AWD 25345.22952720  .00004973  00000+0  14698-2 0  9993", "line2": "2 35987  74.0001 329.4532 0045936  95.6067 265.0330 14.43110132610437"}}, "geometry": {"type": "Point", "coordinates": [43.01218177450666, 73.54628132433801]}}, {"type": "Feature", "properties": {"norad_id": 35989, "name": "COSMOS 2251 DEB", "group": "cosmos-2251-debris", "lat": 45.32617058817467, "lon": 87.07607861024259, "alt_km": 773.1319969543993, "timestamp": "2025-12-12T16:50:33.543484+00:00", "meta": {"OBJECT_NAME": "COSMOS 2251 DEB", "OBJECT_ID": "1993-036AWF", "EPOCH": "2025-12-10T12:26:20.084064", "MEAN_MOTION": 14.37097303, "ECCENTRICITY": 0.0021915, "INCLINATION": 74.0383, "RA_OF_ASC_NODE": 287.9166, "ARG_OF_PERICENTER": 10.2145, "MEAN_ANOMALY": 349.9449, "EPHEMERIS_TYPE": 0, "CLASSIFICATION_TYPE": "U", "NORAD_CAT_ID": 35989, "ELEMENT_SET_NO": 999, "REV_AT_EPOCH": 87147, "BSTAR": 0.00040745, "MEAN_MOTION_DOT": 1.187e-05, "MEAN_MOTION_DDOT": 0}, "tle": {"line1": "1 35989U 93036AWF 25344.51828801  .00001187  00000+0  40745-3 0  9995", "line2": "2 35989  74.0383 287.9166 0021915  10.2145 349.9449 14.37097303871477"}}, "geometry": {"type": "Point", "coordinates": [87.07607861024259, 45.32617058817467]}}, {"type": "Feature", "properties": {"norad_id": 35993, "name": "COSMOS 2251 DEB", "group": "cosmos-2251-debris", "lat": 6.138899270723546, "lon": -25.3621656485468, "alt_km": 696.5602144503127, "timestamp": "2025-12-12T16:50:33.543494+00:00", "meta": {"OBJECT_NAME": "COSMOS 2251 DEB", "OBJECT_ID": "1993-036AWK", "EPOCH": "2025-12-12T06:58:55.226208", "MEAN_MOTION": 14.65296374, "ECCENTRICITY": 0.00289249, "INCLINATION": 74.0152, "RA_OF_ASC_NODE": 333.6624, "ARG_OF_PERICENTER": 163.4674, "MEAN_ANOMALY": 196.7445, "EPHEMERIS_TYPE": 0, "CLASSIFICATION_TYPE": "U", "NORAD_CAT_ID": 35993, "ELEMENT_SET_NO": 999, "REV_AT_EPOCH": 60436, "BSTAR": 0.0011604815, "MEAN_MOTION_DOT": 6.273e-05, "MEAN_MOTION_DDOT": 0}, "tle": {"line1": "1 35993U 93036AWK 25346.29091697  .00006273  00000+0  11605-2 0  9995", "line2": "2 35993  74.0152 333.6624 0028924 163.4674 196.7445 14.65296374604365"}}, "geometry": {"type": "Point", "coordinates": [-25.3621656485468, 6.138899270723546]}}, {"type": "Feature", "properties": {"norad_id": 35996, "name": "COSMOS 2251 DEB", "group": "cosmos-2251-debris", "lat": 73.26386306528292, "lon": 175.9119639599645, "alt_km": 551.404790317044, "timestamp": "2025-12-12T16:50:33.543504+00:00", "meta": {"OBJECT_NAME": "COSMOS 2251 DEB", "OBJECT_ID": "1993-036AWN", "EPOCH": "2025-12-11T00:41:09.521088", "MEAN_MOTION": 15.0906793, "ECCENTRICITY": 0.00884253, "INCLINATION": 74.0157, "RA_OF_ASC_NODE": 106.9511, "ARG_OF_PERICENTER": 198.4339, "MEAN_ANOMALY": 161.3644, "EPHEMERIS_TYPE": 0, "CLASSIFICATION_TYPE": "U", "NORAD_CAT_ID": 35996, "ELEMENT_SET_NO": 999, "REV_AT_EPOCH": 72300, "BSTAR": 0.0011651351, "MEAN_MOTION_DOT": 0.00020245, "MEAN_MOTION_DDOT": 0}, "tle": {"line1": "1 35996U 93036AWN 25345.02858242  .00020245  00000+0  11651-2 0  9991", "line2": "2 35996  74.0157 106.9511 0088425 198.4339 161.3644 15.09067930723002"}}, "geometry": {"type": "Point", "coordinates": [175.9119639599645, 73.26386306528292]}}, {"type": "Feature", "properties": {"norad_id": 35997, "name": "COSMOS 2251 DEB", "group": "cosmos-2251-debris", "lat": -4.696633753499744, "lon": 8.711911083789005, "alt_km": 722.2797589526699, "timestamp": "2025-12-12T16:50:33.543514+00:00", "meta": {"OBJECT_NAME": "COSMOS 2251 DEB", "OBJECT_ID": "1993-036AWP", "EPOCH": "2025-12-12T06:03:58.850208", "MEAN_MOTION": 14.51308894, "ECCENTRICITY": 0.00156756, "INCLINATION": 74.0432, "RA_OF_ASC_NODE": 188.2092, "ARG_OF_PERICENTER": 263.8458, "MEAN_ANOMALY": 96.0917, "EPHEMERIS_TYPE": 0, "CLASSIFICATION_TYPE": "U", "NORAD_CAT_ID": 35997, "ELEMENT_SET_NO": 999, "REV_AT_EPOCH": 70877, "BSTAR": 0.00092768466, "MEAN_MOTION_DOT": 3.673e-05, "MEAN_MOTION_DDOT": 0}, "tle": {"line1": "1 35997U 93036AWP 25346.25276447  .00003673  00000+0  92768-3 0  9994", "line2": "2 35997  74.0432 188.2092 0015675 263.8458  96.0917 14.51308894708779"}}, "geometry": {"type": "Point", "coordinates": [8.711911083789005, -4.696633753499744]}}, {"type": "Feature", "properties": {"norad_id": 36005, "name": "COSMOS 2251 DEB", "group": "cosmos-2251-debris", "lat": -35.25141168335123, "lon": -74.24236577425656, "alt_km": 697.5081036255751, "timestamp": "2025-12-12T16:50:33.543525+00:00", "meta": {"OBJECT_NAME": "COSMOS 2251 DEB", "OBJECT_ID": "1993-036AWX", "EPOCH": "2025-12-10T17:23:32.272512", "MEAN_MOTION": 14.47353034, "ECCENTRICITY": 0.00619888, "INCLINATION": 74.0266, "RA_OF_ASC_NODE": 97.7757, "ARG_OF_PERICENTER": 235.5382, "MEAN_ANOMALY": 123.9911, "EPHEMERIS_TYPE": 0, "CLASSIFICATION_TYPE": "U", "NORAD_CAT_ID": 36005, "ELEMENT_SET_NO": 999, "REV_AT_EPOCH": 87555, "BSTAR": 0.00035630183, "MEAN_MOTION_DOT": 1.308e-05, "MEAN_MOTION_DDOT": 0}, "tle": {"line1": "1 36005U 93036AWX 25344.72467908  .00001308  00000+0  35630-3 0  9997", "line2": "2 36005  74.0266  97.7757 0061988 235.5382 123.9911 14.47353034875553"}}, "geometry": {"type": "Point", "coordinates": [-74.24236577425656, -35.25141168335123]}}]}